[Satellite]
VERSION=1.1
NAME=DIWATA-1
NICKNAME=DIWATA-1
TLE1=1 41463U 98067HT  19317.74363170  .00051783  00000-0  17179-3 0  9992
TLE2=2 41463  51.6269 194.2198 0002186 131.9869 336.3954 15.89794573203250
STATUS=0
